YAMAL 401               
1 40345U 14082A   26192.44019780 -.00000221  00000+0  00000+0 0  9998
2 40345   0.0321 211.3601 0000284  89.3496 237.0442  1.00268789 42167
ASTRA 2G                
1 40364U 14089A   26192.49911311  .00000156  00000+0  00000+0 0  9998
2 40364   0.0476  16.3302 0004252  61.4995  59.4674  1.00273421 42212
FENGYUN 2G              
1 40367U 14090A   26191.82108204 -.00000296  00000+0  00000+0 0  9994
2 40367   5.6947  72.5304 0004180 151.4306  99.7078  1.00262179 42236
MUOS-3                  
1 40374U 15002A   26192.41922435 -.00000127  00000+0  00000+0 0  9995
2 40374   4.5662  43.6167 0053270 177.3973 203.7014  1.00269955 41834
INMARSAT 5-F2           
1 40384U 15005A   26192.48273303 -.00000280  00000+0  00000+0 0  9999
2 40384   0.0180  26.3429 0000466  74.6201 307.2057  1.00271973 41236
ABS-3A                  
1 40424U 15010A   26192.36225226  .00000000  00000+0  00000+0 0  9997
2 40424   0.0466  72.3020 0001608 347.8859 356.5006  1.00269500 41615
EUTELSAT 115 WEST B     
1 40425U 15010B   26192.36937624 -.00000018  00000+0  00000+0 0  9990
2 40425   0.0105 116.1654 0000173 350.3010 200.8914  1.00270364 41620
EXPRESS-AM7             
1 40505U 15012A   26192.50153979  .00000000  00000+0  00000+0 0  9990
2 40505   0.0257  35.9513 0002687  86.0043  28.0137  1.00268726 41255
BEIDOU-3S IGSO-1S       
1 40549U 15019A   26183.80025122 -.00000190  00000+0  00000+0 0  9997
2 40549  49.1798 295.2769 0076860 219.1125 144.2493  1.00680073 41232
THOR 7                  
1 40613U 15022A   26192.42199771 -.00000002  00000+0  00000+0 0  9995
2 40613   0.0218  83.0550 0002264  31.8293 325.7010  1.00270941 41050
TURKMENALEM52E/MONACOSAT
1 40617U 15023A   26192.50396647  .00000110  00000+0  00000+0 0  9999
2 40617   0.0212  78.2078 0002577  40.1450  44.4973  1.00269609 41090
DIRECTV 15              
1 40663U 15026A   26192.38988845 -.00000096  00000+0  00000+0 0  9990
2 40663   0.0189  71.7940 0000191 175.2336  79.7574  1.00271076 40709
SKY MEXICO-1            
1 40664U 15026B   26192.47805301 -.00000228  00000+0  00000+0 0  9993
2 40664   0.0063  54.9721 0002305  79.5804 248.1342  1.00271043 40693
METEOSAT-11 (MSG-4)     
1 40732U 15034A   26192.36183558  .00000065  00000+0  00000+0 0  9997
2 40732   3.2601  70.9590 0002239 352.6406   5.1820  1.00270663  7459
STAR ONE C4             
1 40733U 15034B   26192.47978637 -.00000259  00000+0  00000+0 0  9996
2 40733   0.0252 339.9068 0001331 109.0354 303.1718  1.00270391 40253
WGS F7 (USA 263)        
1 40746U 15036A   26192.51989154  .00000000  00000+0  00000+0 0  9996
2 40746   0.0460  70.1031 0000749 135.9750  85.4955  1.00272076 40112
INTELSAT 34 (IS-34)     
1 40874U 15039A   26192.48264638 -.00000280  00000+0  00000+0 0  9991
2 40874   0.0100 359.1933 0000254 351.6992  56.7606  1.00274184 39879
EUTELSAT 8 WEST B       
1 40875U 15039B   26192.42078436 -.00000059  00000+0  00000+0 0  9999
2 40875   0.0661 340.6252 0003833 124.1305 328.0518  1.00271609 39908
GSAT-6                  
1 40880U 15041A   26192.43872446 -.00000156  00000+0  00000+0 0  9990
2 40880   1.9801  82.2951 0003047  24.1561  63.3041  1.00273648 39843
INMARSAT 5-F3           
1 40882U 15042A   26192.35044852  .00000056  00000+0  00000+0 0  9994
2 40882   0.0183  35.0622 0000420 154.0899  45.8526  1.00271005 39813
MUOS-4                  
1 40887U 15044A   26192.51016895 -.00000091  00000+0  00000+0 0  9995
2 40887   4.3737  42.3676 0056583   3.3504 142.3453  1.00271157 39809
TJS-1                   
1 40892U 15046A   26192.37405703 -.00000150  00000+0  00000+0 0  9993
2 40892   0.3830  84.7735 0004962  17.0689 117.1160  1.00273148 39819
EXPRESS-AM8             
1 40895U 15048A   26192.41957103 -.00000105  00000+0  00000+0 0  9999
2 40895   0.0134 320.5317 0000241   2.3301 103.5080  1.00271856 39585
BEIDOU-3S IGSO-2S       
1 40938U 15053A   26191.65671527 -.00000097  00000+0  00000+0 0  9991
2 40938  49.1849 258.5030 0066299 193.1118 167.0935  1.00254238 39592
SKY MUSTER 1 (NBN1A)    
1 40940U 15054A   26191.16696767  .00000000  00000+0  00000+0 0  9997
2 40940   0.0185  10.4231 0001543  99.4198  18.6038  1.00270506 39499
ARSAT 2                 
1 40941U 15054B   26192.47761969 -.00000219  00000+0  00000+0 0  9993
2 40941   0.0438 283.0670 0001848 180.8265 276.4374  1.00271136 39547
MORELOS 3               
1 40946U 15056A   26192.47129299 -.00000040  00000+0  00000+0 0  9996
2 40946   3.2068  15.6926 0000315 119.4598 210.7931  1.00272376 39529
APSTAR-9                
1 40982U 15059A   26192.45183510 -.00000260  00000+0  00000+0 0  9997
2 40982   0.0174  28.9002 0002999 158.5632  46.5572  1.00273033 39366
TURKSAT 4B              
1 40984U 15060A   26192.50353315  .00000121  00000+0  00000+0 0  9994
2 40984   0.0186  28.7306 0002365  90.3743  41.5359  1.00270989 39342
ZHONGXING-2C            
1 41021U 15063A   26192.57870491 -.00000319  00000+0  00000+0 0  9996
2 41021   0.3329  88.8520 0007922 100.1061  52.2888  1.00273806 39223
GSAT-15                 
1 41028U 15065A   26192.51219931  .00000000  00000+0  00000+0 0  9991
2 41028   0.0221  39.3064 0003553  53.0830 114.9333  1.00269469 39049
BADR-7 (ARABSAT-6B)     
1 41029U 15065B   26192.49867978  .00000151  00000+0  00000+0 0  9996
2 41029   0.0243 209.5623 0004777 354.2813 291.0646  1.00272211 39012
