OBJECT_NAME,OBJECT_ID,EPOCH,MEAN_MOTION,ECCENTRICITY,INCLINATION,RA_OF_ASC_NODE,ARG_OF_PERICENTER,MEAN_ANOMALY,EPHEMERIS_TYPE,CLASSIFICATION_TYPE,NORAD_CAT_ID,ELEMENT_SET_NO,REV_AT_EPOCH,BSTAR,MEAN_MOTION_DOT,MEAN_MOTION_DDOT
YAMAL 401,2014-082A,2026-07-11T10:33:53.089920,1.00268789,.0000284,0.0321,211.3601,89.3496,237.0442,0,U,40345,999,4216,0,-.221E-5,0
ASTRA 2G,2014-089A,2026-07-11T11:58:43.372704,1.00273421,.0004252,0.0476,16.3302,61.4995,59.4674,0,U,40364,999,4221,0,.156E-5,0
FENGYUN 2G,2014-090A,2026-07-10T19:42:21.488256,1.00262179,.000418,5.6947,72.5304,151.4306,99.7078,0,U,40367,999,4223,0,-.296E-5,0
MUOS-3,2015-002A,2026-07-11T10:03:40.983840,1.00269955,.005327,4.5662,43.6167,177.3973,203.7014,0,U,40374,999,4183,0,-.127E-5,0
INMARSAT 5-F2,2015-005A,2026-07-11T11:35:08.133792,1.00271973,.0000466,0.0180,26.3429,74.6201,307.2057,0,U,40384,999,4123,0,-.28E-5,0
ABS-3A,2015-010A,2026-07-11T08:41:38.595264,1.00269500,.0001608,0.0466,72.3020,347.8859,356.5006,0,U,40424,999,4161,0,0,0
EUTELSAT 115 WEST B,2015-010B,2026-07-11T08:51:54.107136,1.00270364,.0000173,0.0105,116.1654,350.3010,200.8914,0,U,40425,999,4162,0,-.18E-6,0
EXPRESS-AM7,2015-012A,2026-07-11T12:02:13.037856,1.00268726,.0002687,0.0257,35.9513,86.0043,28.0137,0,U,40505,999,4125,0,0,0
BEIDOU-3S IGSO-1S,2015-019A,2026-07-02T19:12:21.705408,1.00680073,.00768606,49.1798,295.2769,219.1125,144.2493,0,U,40549,999,4123,0,-.19E-5,0
THOR 7,2015-022A,2026-07-11T10:07:40.602144,1.00270941,.0002264,0.0218,83.0550,31.8293,325.7010,0,U,40613,999,4105,0,-.2E-7,0
TURKMENALEM52E/MONACOSAT,2015-023A,2026-07-11T12:05:42.703008,1.00269609,.0002577,0.0212,78.2078,40.1450,44.4973,0,U,40617,999,4109,0,.11E-5,0
DIRECTV 15,2015-026A,2026-07-11T09:21:26.362080,1.00271076,.0000191,0.0189,71.7940,175.2336,79.7574,0,U,40663,999,4070,0,-.96E-6,0
SKY MEXICO-1,2015-026B,2026-07-11T11:28:23.780064,1.00271043,.0002305,0.0063,54.9721,79.5804,248.1342,0,U,40664,999,4069,0,-.228E-5,0
METEOSAT-11 (MSG-4),2015-034A,2026-07-11T08:41:02.594112,1.00270663,.0002239,3.2601,70.9590,352.6406,5.1820,0,U,40732,999,745,0,.65E-6,0
STAR ONE C4,2015-034B,2026-07-11T11:30:53.542368,1.00270391,.0001331,0.0252,339.9068,109.0354,303.1718,0,U,40733,999,4025,0,-.259E-5,0
WGS F7 (USA 263),2015-036A,2026-07-11T12:28:38.629056,1.00272076,.0000749,0.0460,70.1031,135.9750,85.4955,0,U,40746,999,4011,0,0,0
INTELSAT 34 (IS-34),2015-039A,2026-07-11T11:35:00.647232,1.00274184,.0000254,0.0100,359.1933,351.6992,56.7606,0,U,40874,999,3987,0,-.28E-5,0
EUTELSAT 8 WEST B,2015-039B,2026-07-11T10:05:55.768704,1.00271609,.0003833,0.0661,340.6252,124.1305,328.0518,0,U,40875,999,3990,0,-.59E-6,0
GSAT-6,2015-041A,2026-07-11T10:31:45.793344,1.00273648,.0003047,1.9801,82.2951,24.1561,63.3041,0,U,40880,999,3984,0,-.156E-5,0
INMARSAT 5-F3,2015-042A,2026-07-11T08:24:38.752128,1.00271005,.000042,0.0183,35.0622,154.0899,45.8526,0,U,40882,999,3981,0,.56E-6,0
MUOS-4,2015-044A,2026-07-11T12:14:38.597280,1.00271157,.0056583,4.3737,42.3676,3.3504,142.3453,0,U,40887,999,3980,0,-.91E-6,0
TJS-1,2015-046A,2026-07-11T08:58:38.527392,1.00273148,.0004962,0.3830,84.7735,17.0689,117.1160,0,U,40892,999,3981,0,-.15E-5,0
EXPRESS-AM8,2015-048A,2026-07-11T10:04:10.936992,1.00271856,.0000241,0.0134,320.5317,2.3301,103.5080,0,U,40895,999,3958,0,-.105E-5,0
BEIDOU-3S IGSO-2S,2015-053A,2026-07-10T15:45:40.199328,1.00254238,.0066299,49.1849,258.5030,193.1118,167.0935,0,U,40938,999,3959,0,-.97E-6,0
SKY MUSTER 1 (NBN1A),2015-054A,2026-07-10T04:00:26.006688,1.00270506,.0001543,0.0185,10.4231,99.4198,18.6038,0,U,40940,999,3949,0,0,0
ARSAT 2,2015-054B,2026-07-11T11:27:46.341216,1.00271136,.0001848,0.0438,283.0670,180.8265,276.4374,0,U,40941,999,3954,0,-.219E-5,0
MORELOS 3,2015-056A,2026-07-11T11:18:39.714336,1.00272376,.0000315,3.2068,15.6926,119.4598,210.7931,0,U,40946,999,3952,0,-.4E-6,0
APSTAR-9,2015-059A,2026-07-11T10:50:38.552640,1.00273033,.0002999,0.0174,28.9002,158.5632,46.5572,0,U,40982,999,3936,0,-.26E-5,0
TURKSAT 4B,2015-060A,2026-07-11T12:05:05.264160,1.00270989,.0002365,0.0186,28.7306,90.3743,41.5359,0,U,40984,999,3934,0,.121E-5,0
ZHONGXING-2C,2015-063A,2026-07-11T13:53:20.104224,1.00273806,.0007922,0.3329,88.8520,100.1061,52.2888,0,U,41021,999,3922,0,-.319E-5,0
GSAT-15,2015-065A,2026-07-11T12:17:34.020384,1.00269469,.0003553,0.0221,39.3064,53.0830,114.9333,0,U,41028,999,3904,0,0,0
BADR-7 (ARABSAT-6B),2015-065B,2026-07-11T11:58:05.932992,1.00272211,.0004777,0.0243,209.5623,354.2813,291.0646,0,U,41029,999,3901,0,.151E-5,0
